{
  "links" : {
    "next" : "https://api.nasa.gov/neo/rest/v1/feed?start_date=2013-11-23&end_date=2013-11-23&detailed=true&api_key=t0TVs3DtDT2H8Oy2Zy8m2eVrNsAVKAexjcZXUckd",
    "prev" : "https://api.nasa.gov/neo/rest/v1/feed?start_date=2013-11-21&end_date=2013-11-21&detailed=true&api_key=t0TVs3DtDT2H8Oy2Zy8m2eVrNsAVKAexjcZXUckd",
    "self" : "https://api.nasa.gov/neo/rest/v1/feed?start_date=2013-11-22&end_date=2013-11-22&detailed=true&api_key=t0TVs3DtDT2H8Oy2Zy8m2eVrNsAVKAexjcZXUckd"
  },
  "element_count" : 4,
  "near_earth_objects" : {
    "2013-11-22" : [ {
      "links" : {
        "self" : "https://api.nasa.gov/neo/rest/v1/neo/3655548?api_key=t0TVs3DtDT2H8Oy2Zy8m2eVrNsAVKAexjcZXUckd"
      },
      "neo_reference_id" : "3655548",
      "name" : "(2013 YA38)",
      "nasa_jpl_url" : "http://ssd.jpl.nasa.gov/sbdb.cgi?sstr=3655548",
      "absolute_magnitude_h" : 20.8,
      "estimated_diameter" : {
        "kilometers" : {
          "estimated_diameter_min" : 0.1838886721,
          "estimated_diameter_max" : 0.411187571
        },
        "meters" : {
          "estimated_diameter_min" : 183.8886720703,
          "estimated_diameter_max" : 411.1875710413
        },
        "miles" : {
          "estimated_diameter_min" : 0.1142630881,
          "estimated_diameter_max" : 0.2555000322
        },
        "feet" : {
          "estimated_diameter_min" : 603.309310875,
          "estimated_diameter_max" : 1349.040630575
        }
      },
      "is_potentially_hazardous_asteroid" : false,
      "close_approach_data" : [ {
        "close_approach_date" : "2013-11-22",
        "epoch_date_close_approach" : 1385107200000,
        "relative_velocity" : {
          "kilometers_per_second" : "16.5599914871",
          "kilometers_per_hour" : "59615.9693534146",
          "miles_per_hour" : "37043.0449574036"
        },
        "miss_distance" : {
          "astronomical" : "0.0613635359",
          "lunar" : "23.8704166412",
          "kilometers" : "9179855",
          "miles" : "5704097"
        },
        "orbiting_body" : "Earth"
      } ],
      "orbital_data" : {
        "orbit_id" : "8",
        "orbit_determination_date" : "2017-04-06 08:43:11",
        "orbit_uncertainty" : "8",
        "minimum_orbit_intersection" : ".0582152",
        "jupiter_tisserand_invariant" : "3.074",
        "epoch_osculation" : "2456656.5",
        "eccentricity" : ".6952320331871749",
        "semi_major_axis" : "2.501374017563877",
        "inclination" : "4.10787317083221",
        "ascending_node_longitude" : "187.2807608305675",
        "orbital_period" : "1444.995113561172",
        "perihelion_distance" : ".7623386735713709",
        "perihelion_argument" : "172.3257781093424",
        "aphelion_distance" : "4.240409361556384",
        "perihelion_time" : "2456581.074175197892",
        "mean_anomaly" : "18.79127249215392",
        "mean_motion" : ".2491357905791007",
        "equinox" : "J2000"
      }
    }, {
      "links" : {
        "self" : "https://api.nasa.gov/neo/rest/v1/neo/3092168?api_key=t0TVs3DtDT2H8Oy2Zy8m2eVrNsAVKAexjcZXUckd"
      },
      "neo_reference_id" : "3092168",
      "name" : "(1997 YM9)",
      "nasa_jpl_url" : "http://ssd.jpl.nasa.gov/sbdb.cgi?sstr=3092168",
      "absolute_magnitude_h" : 24.0,
      "estimated_diameter" : {
        "kilometers" : {
          "estimated_diameter_min" : 0.0421264611,
          "estimated_diameter_max" : 0.0941976306
        },
        "meters" : {
          "estimated_diameter_min" : 42.1264610556,
          "estimated_diameter_max" : 94.1976305719
        },
        "miles" : {
          "estimated_diameter_min" : 0.0261761612,
          "estimated_diameter_max" : 0.0585316759
        },
        "feet" : {
          "estimated_diameter_min" : 138.2101784897,
          "estimated_diameter_max" : 309.0473542854
        }
      },
      "is_potentially_hazardous_asteroid" : false,
      "close_approach_data" : [ {
        "close_approach_date" : "2013-11-22",
        "epoch_date_close_approach" : 1385107200000,
        "relative_velocity" : {
          "kilometers_per_second" : "3.7386727366",
          "kilometers_per_hour" : "13459.2218517974",
          "miles_per_hour" : "8363.0370445238"
        },
        "miss_distance" : {
          "astronomical" : "0.1858872548",
          "lunar" : "72.3101425171",
          "kilometers" : "27808338",
          "miles" : "17279300"
        },
        "orbiting_body" : "Earth"
      } ],
      "orbital_data" : {
        "orbit_id" : "14",
        "orbit_determination_date" : "2017-04-06 09:17:55",
        "orbit_uncertainty" : "0",
        "minimum_orbit_intersection" : ".0320389",
        "jupiter_tisserand_invariant" : "5.653",
        "epoch_osculation" : "2458000.5",
        "eccentricity" : ".1038958886344511",
        "semi_major_axis" : "1.095866729344234",
        "inclination" : "7.842869138399898",
        "ascending_node_longitude" : "94.73594919071684",
        "orbital_period" : "419.0202770932764",
        "perihelion_distance" : ".9820106816740856",
        "perihelion_argument" : "51.74501531273302",
        "aphelion_distance" : "1.209722777014383",
        "perihelion_time" : "2457970.893590649406",
        "mean_anomaly" : "25.43625678487444",
        "mean_motion" : ".8591469665795238",
        "equinox" : "J2000"
      }
    }, {
      "links" : {
        "self" : "https://api.nasa.gov/neo/rest/v1/neo/3555155?api_key=t0TVs3DtDT2H8Oy2Zy8m2eVrNsAVKAexjcZXUckd"
      },
      "neo_reference_id" : "3555155",
      "name" : "(2011 AA23)",
      "nasa_jpl_url" : "http://ssd.jpl.nasa.gov/sbdb.cgi?sstr=3555155",
      "absolute_magnitude_h" : 23.8,
      "estimated_diameter" : {
        "kilometers" : {
          "estimated_diameter_min" : 0.046190746,
          "estimated_diameter_max" : 0.1032856481
        },
        "meters" : {
          "estimated_diameter_min" : 46.1907460282,
          "estimated_diameter_max" : 103.2856480504
        },
        "miles" : {
          "estimated_diameter_min" : 0.0287015901,
          "estimated_diameter_max" : 0.0641787064
        },
        "feet" : {
          "estimated_diameter_min" : 151.544447199,
          "estimated_diameter_max" : 338.8636855496
        }
      },
      "is_potentially_hazardous_asteroid" : false,
      "close_approach_data" : [ {
        "close_approach_date" : "2013-11-22",
        "epoch_date_close_approach" : 1385107200000,
        "relative_velocity" : {
          "kilometers_per_second" : "12.9367696883",
          "kilometers_per_hour" : "46572.3708777295",
          "miles_per_hour" : "28938.2601156648"
        },
        "miss_distance" : {
          "astronomical" : "0.3668902091",
          "lunar" : "142.7202911377",
          "kilometers" : "54885996",
          "miles" : "34104576"
        },
        "orbiting_body" : "Earth"
      } ],
      "orbital_data" : {
        "orbit_id" : "14",
        "orbit_determination_date" : "2017-04-06 08:55:01",
        "orbit_uncertainty" : "6",
        "minimum_orbit_intersection" : ".0350984",
        "jupiter_tisserand_invariant" : "4.984",
        "epoch_osculation" : "2458000.5",
        "eccentricity" : ".2174652808923143",
        "semi_major_axis" : "1.295352218401406",
        "inclination" : "7.013639562758623",
        "ascending_node_longitude" : "111.1315860866679",
        "orbital_period" : "538.4932163873191",
        "perihelion_distance" : "1.013658084372262",
        "perihelion_argument" : "346.6565401201324",
        "aphelion_distance" : "1.57704635243055",
        "perihelion_time" : "2458250.792709328834",
        "mean_anomaly" : "192.6712897835823",
        "mean_motion" : ".6685320985382011",
        "equinox" : "J2000"
      }
    }, {
      "links" : {
        "self" : "https://api.nasa.gov/neo/rest/v1/neo/3738544?api_key=t0TVs3DtDT2H8Oy2Zy8m2eVrNsAVKAexjcZXUckd"
      },
      "neo_reference_id" : "3738544",
      "name" : "(2015 YG)",
      "nasa_jpl_url" : "http://ssd.jpl.nasa.gov/sbdb.cgi?sstr=3738544",
      "absolute_magnitude_h" : 23.2,
      "estimated_diameter" : {
        "kilometers" : {
          "estimated_diameter_min" : 0.0608912622,
          "estimated_diameter_max" : 0.1361570015
        },
        "meters" : {
          "estimated_diameter_min" : 60.8912622106,
          "estimated_diameter_max" : 136.1570015386
        },
        "miles" : {
          "estimated_diameter_min" : 0.0378360645,
          "estimated_diameter_max" : 0.0846040122
        },
        "feet" : {
          "estimated_diameter_min" : 199.7744887109,
          "estimated_diameter_max" : 446.7093369279
        }
      },
      "is_potentially_hazardous_asteroid" : false,
      "close_approach_data" : [ {
        "close_approach_date" : "2013-11-22",
        "epoch_date_close_approach" : 1385107200000,
        "relative_velocity" : {
          "kilometers_per_second" : "19.9701353814",
          "kilometers_per_hour" : "71892.4873732031",
          "miles_per_hour" : "44671.195834755"
        },
        "miss_distance" : {
          "astronomical" : "0.2676781348",
          "lunar" : "104.1268005371",
          "kilometers" : "40044080",
          "miles" : "24882238"
        },
        "orbiting_body" : "Earth"
      } ],
      "orbital_data" : {
        "orbit_id" : "6",
        "orbit_determination_date" : "2017-04-06 08:29:45",
        "orbit_uncertainty" : "7",
        "minimum_orbit_intersection" : ".0945389",
        "jupiter_tisserand_invariant" : "7.606",
        "epoch_osculation" : "2458000.5",
        "eccentricity" : ".4872196875536879",
        "semi_major_axis" : ".7470318295685924",
        "inclination" : "14.61162529977332",
        "ascending_node_longitude" : "267.9638221876668",
        "orbital_period" : "235.8343636565311",
        "perihelion_distance" : ".383063214973523",
        "perihelion_argument" : "355.2488685140135",
        "aphelion_distance" : "1.111000444163662",
        "perihelion_time" : "2457970.166196121118",
        "mean_anomaly" : "46.30440291687798",
        "mean_motion" : "1.526495097738613",
        "equinox" : "J2000"
      }
    } ]
  }
}